STARLINK-36719          
1 67648U 26022A   26043.91670139 -.01671338  00000+0 -86932-2 0  9994
2 67648  97.2837  76.6417 0001484  73.6786  48.6171 15.83866178  2916
STARLINK-36342          
1 67649U 26022B   26043.91670139 -.01677014  00000+0 -86584-2 0  9995
2 67649  97.2834  76.6430 0001712  86.8286  39.3122 15.84028642  2914
STARLINK-36703          
1 67650U 26022C   26043.91670139 -.01674855  00000+0 -85613-2 0  9999
2 67650  97.2834  76.6451 0001818  69.2479  61.7826 15.84231610  2916
STARLINK-36696          
1 67651U 26022D   26043.91670139 -.01668110  00000+0 -84353-2 0  9997
2 67651  97.2832  76.6471 0001542  79.8386  56.3227 15.84447479  2912
STARLINK-36699          
1 67652U 26022E   26043.91670139 -.01669487  00000+0 -83677-2 0  9994
2 67652  97.2832  76.6489 0001573  73.6671  66.8746 15.84633938  2914
STARLINK-36694          
1 67653U 26022F   26043.91670139 -.01664345  00000+0 -82416-2 0  9993
2 67653  97.2833  76.6516 0001611  74.0262  72.1576 15.84874901  2919
STARLINK-36620          
1 67654U 26022G   26043.91670139 -.01660703  00000+0 -81383-2 0  9990
2 67654  97.2830  76.6531 0001639  83.8511  67.2410 15.85083367  2910
STARLINK-36720          
1 67655U 26022H   26043.91670139 -.01656834  00000+0 -80201-2 0  9999
2 67655  97.2832  76.6557 0001732  74.7006  82.1127 15.85328828  2918
STARLINK-36688          
1 67656U 26022J   26043.91670139 -.01656503  00000+0 -79502-2 0  9995
2 67656  97.2826  76.6569 0001759  77.2861  83.6973 15.85503938  2913
STARLINK-36706          
1 67657U 26022K   26043.91670139 -.01654807  00000+0 -78624-2 0  9995
2 67657  97.2822  76.6585 0001691  74.6009  91.1761 15.85709063  2880
STARLINK-36701          
1 67658U 26022L   26043.91670139 -.01645642  00000+0 -77279-2 0  9998
2 67658  97.2822  76.6614 0001600  85.1023  85.9643 15.85933532  2911
STARLINK-36642          
1 67659U 26022M   26043.91670139 -.01643098  00000+0 -76553-2 0  9996
2 67659  97.2824  76.6632 0001578  78.4767  96.4332 15.86090894  2916
