CCSDS_OMM_VERS = 2.0
CREATION_DATE  = 
ORIGINATOR     = 

OBJECT_NAME    = STARLINK-36719
OBJECT_ID      = 2026-022A
CENTER_NAME    = EARTH
REF_FRAME      = TEME
TIME_SYSTEM    = UTC
MEAN_ELEMENT_THEORY = SGP/SGP4

EPOCH          = 2026-02-12T22:00:03.000096
MEAN_MOTION    = 15.83866178
ECCENTRICITY   = .00014844
INCLINATION    = 97.2837
RA_OF_ASC_NODE = 76.6417
ARG_OF_PERICENTER = 73.6786
MEAN_ANOMALY   = 48.6171

EPHEMERIS_TYPE = 0
CLASSIFICATION_TYPE = U
NORAD_CAT_ID   = 67648
ELEMENT_SET_NO = 999
REV_AT_EPOCH   = 291
BSTAR          = -.86931636E-2
MEAN_MOTION_DOT = -.1671338E-1
MEAN_MOTION_DDOT = 0

CCSDS_OMM_VERS = 2.0
CREATION_DATE  = 
ORIGINATOR     = 

OBJECT_NAME    = STARLINK-36342
OBJECT_ID      = 2026-022B
CENTER_NAME    = EARTH
REF_FRAME      = TEME
TIME_SYSTEM    = UTC
MEAN_ELEMENT_THEORY = SGP/SGP4

EPOCH          = 2026-02-12T22:00:03.000096
MEAN_MOTION    = 15.84028642
ECCENTRICITY   = .00017121
INCLINATION    = 97.2834
RA_OF_ASC_NODE = 76.6430
ARG_OF_PERICENTER = 86.8286
MEAN_ANOMALY   = 39.3122

EPHEMERIS_TYPE = 0
CLASSIFICATION_TYPE = U
NORAD_CAT_ID   = 67649
ELEMENT_SET_NO = 999
REV_AT_EPOCH   = 291
BSTAR          = -.86583973E-2
MEAN_MOTION_DOT = -.1677014E-1
MEAN_MOTION_DDOT = 0

CCSDS_OMM_VERS = 2.0
CREATION_DATE  = 
ORIGINATOR     = 

OBJECT_NAME    = STARLINK-36703
OBJECT_ID      = 2026-022C
CENTER_NAME    = EARTH
REF_FRAME      = TEME
TIME_SYSTEM    = UTC
MEAN_ELEMENT_THEORY = SGP/SGP4

EPOCH          = 2026-02-12T22:00:03.000096
MEAN_MOTION    = 15.84231610
ECCENTRICITY   = .00018189
INCLINATION    = 97.2834
RA_OF_ASC_NODE = 76.6451
ARG_OF_PERICENTER = 69.2479
MEAN_ANOMALY   = 61.7826

EPHEMERIS_TYPE = 0
CLASSIFICATION_TYPE = U
NORAD_CAT_ID   = 67650
ELEMENT_SET_NO = 999
REV_AT_EPOCH   = 291
BSTAR          = -.85612874E-2
MEAN_MOTION_DOT = -.1674855E-1
MEAN_MOTION_DDOT = 0

CCSDS_OMM_VERS = 2.0
CREATION_DATE  = 
ORIGINATOR     = 

OBJECT_NAME    = STARLINK-36696
OBJECT_ID      = 2026-022D
CENTER_NAME    = EARTH
REF_FRAME      = TEME
TIME_SYSTEM    = UTC
MEAN_ELEMENT_THEORY = SGP/SGP4

EPOCH          = 2026-02-12T22:00:03.000096
MEAN_MOTION    = 15.84447479
ECCENTRICITY   = .00015424
INCLINATION    = 97.2832
RA_OF_ASC_NODE = 76.6471
ARG_OF_PERICENTER = 79.8386
MEAN_ANOMALY   = 56.3227

EPHEMERIS_TYPE = 0
CLASSIFICATION_TYPE = U
NORAD_CAT_ID   = 67651
ELEMENT_SET_NO = 999
REV_AT_EPOCH   = 291
BSTAR          = -.84352647E-2
MEAN_MOTION_DOT = -.166811E-1
MEAN_MOTION_DDOT = 0

CCSDS_OMM_VERS = 2.0
CREATION_DATE  = 
ORIGINATOR     = 

OBJECT_NAME    = STARLINK-36699
OBJECT_ID      = 2026-022E
CENTER_NAME    = EARTH
REF_FRAME      = TEME
TIME_SYSTEM    = UTC
MEAN_ELEMENT_THEORY = SGP/SGP4

EPOCH          = 2026-02-12T22:00:03.000096
MEAN_MOTION    = 15.84633938
ECCENTRICITY   = .00015736
INCLINATION    = 97.2832
RA_OF_ASC_NODE = 76.6489
ARG_OF_PERICENTER = 73.6671
MEAN_ANOMALY   = 66.8746

EPHEMERIS_TYPE = 0
CLASSIFICATION_TYPE = U
NORAD_CAT_ID   = 67652
ELEMENT_SET_NO = 999
REV_AT_EPOCH   = 291
BSTAR          = -.83677218E-2
MEAN_MOTION_DOT = -.1669487E-1
MEAN_MOTION_DDOT = 0

CCSDS_OMM_VERS = 2.0
CREATION_DATE  = 
ORIGINATOR     = 

OBJECT_NAME    = STARLINK-36694
OBJECT_ID      = 2026-022F
CENTER_NAME    = EARTH
REF_FRAME      = TEME
TIME_SYSTEM    = UTC
MEAN_ELEMENT_THEORY = SGP/SGP4

EPOCH          = 2026-02-12T22:00:03.000096
MEAN_MOTION    = 15.84874901
ECCENTRICITY   = .00016113
INCLINATION    = 97.2833
RA_OF_ASC_NODE = 76.6516
ARG_OF_PERICENTER = 74.0262
MEAN_ANOMALY   = 72.1576

EPHEMERIS_TYPE = 0
CLASSIFICATION_TYPE = U
NORAD_CAT_ID   = 67653
ELEMENT_SET_NO = 999
REV_AT_EPOCH   = 291
BSTAR          = -.82415647E-2
MEAN_MOTION_DOT = -.1664345E-1
MEAN_MOTION_DDOT = 0

CCSDS_OMM_VERS = 2.0
CREATION_DATE  = 
ORIGINATOR     = 

OBJECT_NAME    = STARLINK-36620
OBJECT_ID      = 2026-022G
CENTER_NAME    = EARTH
REF_FRAME      = TEME
TIME_SYSTEM    = UTC
MEAN_ELEMENT_THEORY = SGP/SGP4

EPOCH          = 2026-02-12T22:00:03.000096
MEAN_MOTION    = 15.85083367
ECCENTRICITY   = .00016392
INCLINATION    = 97.2830
RA_OF_ASC_NODE = 76.6531
ARG_OF_PERICENTER = 83.8511
MEAN_ANOMALY   = 67.2410

EPHEMERIS_TYPE = 0
CLASSIFICATION_TYPE = U
NORAD_CAT_ID   = 67654
ELEMENT_SET_NO = 999
REV_AT_EPOCH   = 291
BSTAR          = -.81382823E-2
MEAN_MOTION_DOT = -.1660703E-1
MEAN_MOTION_DDOT = 0

CCSDS_OMM_VERS = 2.0
CREATION_DATE  = 
ORIGINATOR     = 

OBJECT_NAME    = STARLINK-36720
OBJECT_ID      = 2026-022H
CENTER_NAME    = EARTH
REF_FRAME      = TEME
TIME_SYSTEM    = UTC
MEAN_ELEMENT_THEORY = SGP/SGP4

EPOCH          = 2026-02-12T22:00:03.000096
MEAN_MOTION    = 15.85328828
ECCENTRICITY   = .0001732
INCLINATION    = 97.2832
RA_OF_ASC_NODE = 76.6557
ARG_OF_PERICENTER = 74.7006
MEAN_ANOMALY   = 82.1127

EPHEMERIS_TYPE = 0
CLASSIFICATION_TYPE = U
NORAD_CAT_ID   = 67655
ELEMENT_SET_NO = 999
REV_AT_EPOCH   = 291
BSTAR          = -.8020084E-2
MEAN_MOTION_DOT = -.1656834E-1
MEAN_MOTION_DDOT = 0

CCSDS_OMM_VERS = 2.0
CREATION_DATE  = 
ORIGINATOR     = 

OBJECT_NAME    = STARLINK-36688
OBJECT_ID      = 2026-022J
CENTER_NAME    = EARTH
REF_FRAME      = TEME
TIME_SYSTEM    = UTC
MEAN_ELEMENT_THEORY = SGP/SGP4

EPOCH          = 2026-02-12T22:00:03.000096
MEAN_MOTION    = 15.85503938
ECCENTRICITY   = .00017596
INCLINATION    = 97.2826
RA_OF_ASC_NODE = 76.6569
ARG_OF_PERICENTER = 77.2861
MEAN_ANOMALY   = 83.6973

EPHEMERIS_TYPE = 0
CLASSIFICATION_TYPE = U
NORAD_CAT_ID   = 67656
ELEMENT_SET_NO = 999
REV_AT_EPOCH   = 291
BSTAR          = -.79502344E-2
MEAN_MOTION_DOT = -.1656503E-1
MEAN_MOTION_DDOT = 0

CCSDS_OMM_VERS = 2.0
CREATION_DATE  = 
ORIGINATOR     = 

OBJECT_NAME    = STARLINK-36706
OBJECT_ID      = 2026-022K
CENTER_NAME    = EARTH
REF_FRAME      = TEME
TIME_SYSTEM    = UTC
MEAN_ELEMENT_THEORY = SGP/SGP4

EPOCH          = 2026-02-12T22:00:03.000096
MEAN_MOTION    = 15.85709063
ECCENTRICITY   = .00016915
INCLINATION    = 97.2822
RA_OF_ASC_NODE = 76.6585
ARG_OF_PERICENTER = 74.6009
MEAN_ANOMALY   = 91.1761

EPHEMERIS_TYPE = 0
CLASSIFICATION_TYPE = U
NORAD_CAT_ID   = 67657
ELEMENT_SET_NO = 999
REV_AT_EPOCH   = 288
BSTAR          = -.78624166E-2
MEAN_MOTION_DOT = -.1654807E-1
MEAN_MOTION_DDOT = 0

CCSDS_OMM_VERS = 2.0
CREATION_DATE  = 
ORIGINATOR     = 

OBJECT_NAME    = STARLINK-36701
OBJECT_ID      = 2026-022L
CENTER_NAME    = EARTH
REF_FRAME      = TEME
TIME_SYSTEM    = UTC
MEAN_ELEMENT_THEORY = SGP/SGP4

EPOCH          = 2026-02-12T22:00:03.000096
MEAN_MOTION    = 15.85933532
ECCENTRICITY   = .00016003
INCLINATION    = 97.2822
RA_OF_ASC_NODE = 76.6614
ARG_OF_PERICENTER = 85.1023
MEAN_ANOMALY   = 85.9643

EPHEMERIS_TYPE = 0
CLASSIFICATION_TYPE = U
NORAD_CAT_ID   = 67658
ELEMENT_SET_NO = 999
REV_AT_EPOCH   = 291
BSTAR          = -.7727915E-2
MEAN_MOTION_DOT = -.1645642E-1
MEAN_MOTION_DDOT = 0

CCSDS_OMM_VERS = 2.0
CREATION_DATE  = 
ORIGINATOR     = 

OBJECT_NAME    = STARLINK-36642
OBJECT_ID      = 2026-022M
CENTER_NAME    = EARTH
REF_FRAME      = TEME
TIME_SYSTEM    = UTC
MEAN_ELEMENT_THEORY = SGP/SGP4

EPOCH          = 2026-02-12T22:00:03.000096
MEAN_MOTION    = 15.86090894
ECCENTRICITY   = .00015781
INCLINATION    = 97.2824
RA_OF_ASC_NODE = 76.6632
ARG_OF_PERICENTER = 78.4767
MEAN_ANOMALY   = 96.4332

EPHEMERIS_TYPE = 0
CLASSIFICATION_TYPE = U
NORAD_CAT_ID   = 67659
ELEMENT_SET_NO = 999
REV_AT_EPOCH   = 291
BSTAR          = -.76552649E-2
MEAN_MOTION_DOT = -.1643098E-1
MEAN_MOTION_DDOT = 0

